     2.11           N: GPS NAV DATA                         RINEX VERSION / TYPE
teqc  2019Feb25                         20221121 12:23:46UTCPGM / RUN BY / DATE
OSX ker:10.11.6|Core i5|gcc 4.3 -m64|OSX ker:10.10+|=+      COMMENT
    6.5193D-09  2.2352D-08 -5.9605D-08 -1.1921D-07          ION ALPHA
    8.6016D+04  9.8304D+04 -6.5536D+04 -5.2429D+05          ION BETA
   -1.862645149231D-09-7.993605777301D-15   233472     1534 DELTA-UTC: A0,A1,T,W
                                                            END OF HEADER
24 09  5 31 23 59 44.0 1.932559534907D-04 2.955857780762D-12 0.000000000000D+00
    3.100000000000D+01 6.734375000000D+01 4.589476884420D-09 2.653915094605D+00
    3.518536686897D-06 6.703661405481D-03 8.089467883110D-06 5.153678627014D+03
    8.638400000000D+04-3.725290298462D-08-4.695499310279D-01 3.911554813385D-08
    9.508473400026D-01 2.208125000000D+02-6.492770008332D-01-8.031405968867D-09
    1.428630936784D-12 1.000000000000D+00 1.534000000000D+03 0.000000000000D+00
    2.000000000000D+00 0.000000000000D+00-1.396983861923D-09 3.100000000000D+01
    7.921800000000D+04 4.000000000000D+00
19 09  5 31 23 59 44.0 2.396851778030D-05-1.250555214938D-12 0.000000000000D+00
    1.900000000000D+01-2.043750000000D+01 4.574833417318D-09 8.219580178736D-01
   -1.180917024612D-06 5.629774183035D-03 1.078471541405D-05 5.153613170624D+03
    8.638400000000D+04 1.154839992523D-07-1.494044751087D+00 1.862645149231D-09
    9.570768694304D-01 1.627812500000D+02-3.583947499285D-01-8.051049644248D-09
   -3.407284784231D-10 1.000000000000D+00 1.534000000000D+03 0.000000000000D+00
    2.000000000000D+00 0.000000000000D+00-1.443549990654D-08 1.900000000000D+01
    8.436600000000D+04 4.000000000000D+00
